PROGRESS-MS 32          
1 65586U 25204A   25306.16536886  .00010754  00000+0  19821-3 0  9992
2 65586  51.6344 343.3491 0004949   8.0304 352.0763 15.49695226   277
CYGNUS NG-23            
1 65616U 25208A   25306.16536886  .00010754  00000+0  19821-3 0  9990
2 65616  51.6344 343.3491 0004949   8.0304 352.0763 15.49695226   226
DRAGONFLY               
1 65729U 98067XH  25306.39139799  .00091400  00000+0  11100-2 0  9993
2 65729  51.6314 340.3627 0003530  67.4821 292.6545 15.59817489  6843
1998-067XJ              
1 65730U 98067XJ  25306.48453171  .00243642  00000+0  20561-2 0  9996
2 65730  51.6288 338.7278 0011000  47.1100 313.0819 15.68412478  6878
1998-067XK              
1 65731U 98067XK  25306.48108404  .00062884  00000+0  82931-3 0  9990
2 65731  51.6326 340.2124 0004986  45.7464 314.3936 15.57788935  6856
RSP-03                  
1 65732U 98067XL  25305.82743346  .00078013  00000+0  99143-3 0  9992
2 65732  51.6320 343.3470 0005762  44.1597 315.9855 15.58678481  6764
GHS-01                  
1 65733U 98067XM  25306.38275618  .00103401  00000+0  12194-2 0  9997
2 65733  51.6324 340.3060 0004009  64.4397 295.7010 15.60529617  6854
YOTSUBA-KULOVER         
1 65941U 98067XN  25306.19457614  .00050853  00000+0  79362-3 0  9998
2 65941  51.6327 342.7961 0002694 352.6363   7.4587 15.53311816  3549
BOTAN                   
1 65942U 98067XP  25305.54523315  .00066684  00000+0  10070-2 0  9998
2 65942  51.6331 345.9591 0004625   5.6465 354.4577 15.54095782  3448
E-KAGAKU-1              
1 65943U 98067XQ  25305.48643289  .00048933  00000+0  76576-3 0  9996
2 65943  51.6344 346.3156 0004407 355.0444   5.0502 15.53246328  3431
HTV-X1                  
1 66174U 25241A   25306.16536886  .00010754  00000+0  19821-3 0  9997
2 66174  51.6344 343.3491 0004949   8.0304 352.0763 15.49695226  1081
